LIZZIESAT-2 (LS-2)      
1 62383U 24247G   26068.49140277  .00009388  00000+0  34517-3 0  9997
2 62383  44.9909 117.0823 0004092 327.5136  32.5495 15.28222796 67716
STARLINK-34161          
1 64017U 25101Z   26068.14569337  .00029321  00000+0  10702-2 0  9995
2 64017  43.0052   0.8898 0001807 273.3372  86.7273 15.27599371 46978
